CCSDS_OMM_VERS = 2.0
CREATION_DATE  = 
ORIGINATOR     = 

OBJECT_NAME    = SILVERSAT
OBJECT_ID      = 1998-067XV
CENTER_NAME    = EARTH
REF_FRAME      = TEME
TIME_SYSTEM    = UTC
MEAN_ELEMENT_THEORY = SGP/SGP4

EPOCH          = 2026-02-14T15:20:21.721920
MEAN_MOTION    = 15.64616576
ECCENTRICITY   = .0002929
INCLINATION    = 51.6270
RA_OF_ASC_NODE = 182.2339
ARG_OF_PERICENTER = 303.3470
MEAN_ANOMALY   = 56.7245

EPHEMERIS_TYPE = 0
CLASSIFICATION_TYPE = U
NORAD_CAT_ID   = 66909
ELEMENT_SET_NO = 999
REV_AT_EPOCH   = 1157
BSTAR          = .10758E-2
MEAN_MOTION_DOT = .107018E-2
MEAN_MOTION_DDOT = 0

CCSDS_OMM_VERS = 2.0
CREATION_DATE  = 
ORIGINATOR     = 

OBJECT_NAME    = ISS OBJECT XW
OBJECT_ID      = 1998-067XW
CENTER_NAME    = EARTH
REF_FRAME      = TEME
TIME_SYSTEM    = UTC
MEAN_ELEMENT_THEORY = SGP/SGP4

EPOCH          = 2026-02-14T09:42:57.074400
MEAN_MOTION    = 15.62815467
ECCENTRICITY   = .0002235
INCLINATION    = 51.6252
RA_OF_ASC_NODE = 183.6647
ARG_OF_PERICENTER = 332.2237
MEAN_ANOMALY   = 27.8637

EPHEMERIS_TYPE = 0
CLASSIFICATION_TYPE = U
NORAD_CAT_ID   = 66910
ELEMENT_SET_NO = 999
REV_AT_EPOCH   = 1153
BSTAR          = .11845E-2
MEAN_MOTION_DOT = .109816E-2
MEAN_MOTION_DDOT = 0

CCSDS_OMM_VERS = 2.0
CREATION_DATE  = 
ORIGINATOR     = 

OBJECT_NAME    = ISS OBJECT XX
OBJECT_ID      = 1998-067XX
CENTER_NAME    = EARTH
REF_FRAME      = TEME
TIME_SYSTEM    = UTC
MEAN_ELEMENT_THEORY = SGP/SGP4

EPOCH          = 2026-02-14T14:30:01.108800
MEAN_MOTION    = 15.66097988
ECCENTRICITY   = .0004032
INCLINATION    = 51.6239
RA_OF_ASC_NODE = 181.9920
ARG_OF_PERICENTER = 322.3771
MEAN_ANOMALY   = 37.6942

EPHEMERIS_TYPE = 0
CLASSIFICATION_TYPE = U
NORAD_CAT_ID   = 66911
ELEMENT_SET_NO = 999
REV_AT_EPOCH   = 1156
BSTAR          = .12316E-2
MEAN_MOTION_DOT = .130484E-2
MEAN_MOTION_DDOT = 0

CCSDS_OMM_VERS = 2.0
CREATION_DATE  = 
ORIGINATOR     = 

OBJECT_NAME    = ISS OBJECT XY
OBJECT_ID      = 1998-067XY
CENTER_NAME    = EARTH
REF_FRAME      = TEME
TIME_SYSTEM    = UTC
MEAN_ELEMENT_THEORY = SGP/SGP4

EPOCH          = 2026-02-14T14:33:37.463904
MEAN_MOTION    = 15.59665475
ECCENTRICITY   = .0000507
INCLINATION    = 51.6276
RA_OF_ASC_NODE = 183.5201
ARG_OF_PERICENTER = 330.7488
MEAN_ANOMALY   = 29.3476

EPHEMERIS_TYPE = 0
CLASSIFICATION_TYPE = U
NORAD_CAT_ID   = 66912
ELEMENT_SET_NO = 999
REV_AT_EPOCH   = 1154
BSTAR          = .77333E-3
MEAN_MOTION_DOT = .62914E-3
MEAN_MOTION_DDOT = 0

CCSDS_OMM_VERS = 2.0
CREATION_DATE  = 
ORIGINATOR     = 

OBJECT_NAME    = ISS OBJECT XZ
OBJECT_ID      = 1998-067XZ
CENTER_NAME    = EARTH
REF_FRAME      = TEME
TIME_SYSTEM    = UTC
MEAN_ELEMENT_THEORY = SGP/SGP4

EPOCH          = 2026-02-14T14:15:48.139488
MEAN_MOTION    = 15.49944113
ECCENTRICITY   = .0010621
INCLINATION    = 51.6304
RA_OF_ASC_NODE = 186.4348
ARG_OF_PERICENTER = 111.5111
MEAN_ANOMALY   = 248.7011

EPHEMERIS_TYPE = 0
CLASSIFICATION_TYPE = U
NORAD_CAT_ID   = 67683
ELEMENT_SET_NO = 999
REV_AT_EPOCH   = 120
BSTAR          = .59355E-3
MEAN_MOTION_DOT = .33561E-3
MEAN_MOTION_DDOT = 0

CCSDS_OMM_VERS = 2.0
CREATION_DATE  = 
ORIGINATOR     = 

OBJECT_NAME    = GXIBA-1
OBJECT_ID      = 1998-067YA
CENTER_NAME    = EARTH
REF_FRAME      = TEME
TIME_SYSTEM    = UTC
MEAN_ELEMENT_THEORY = SGP/SGP4

EPOCH          = 2026-02-14T14:10:51.050496
MEAN_MOTION    = 15.50770817
ECCENTRICITY   = .001233
INCLINATION    = 51.6306
RA_OF_ASC_NODE = 186.4134
ARG_OF_PERICENTER = 105.3844
MEAN_ANOMALY   = 254.8508

EPHEMERIS_TYPE = 0
CLASSIFICATION_TYPE = U
NORAD_CAT_ID   = 67684
ELEMENT_SET_NO = 999
REV_AT_EPOCH   = 120
BSTAR          = .93626E-3
MEAN_MOTION_DOT = .54991E-3
MEAN_MOTION_DDOT = 0

CCSDS_OMM_VERS = 2.0
CREATION_DATE  = 
ORIGINATOR     = 

OBJECT_NAME    = CORAL
OBJECT_ID      = 1998-067YB
CENTER_NAME    = EARTH
REF_FRAME      = TEME
TIME_SYSTEM    = UTC
MEAN_ELEMENT_THEORY = SGP/SGP4

EPOCH          = 2026-02-14T14:14:48.236640
MEAN_MOTION    = 15.50087237
ECCENTRICITY   = .0012537
INCLINATION    = 51.6303
RA_OF_ASC_NODE = 186.4305
ARG_OF_PERICENTER = 107.0461
MEAN_ANOMALY   = 253.1903

EPHEMERIS_TYPE = 0
CLASSIFICATION_TYPE = U
NORAD_CAT_ID   = 67685
ELEMENT_SET_NO = 999
REV_AT_EPOCH   = 120
BSTAR          = .64875E-3
MEAN_MOTION_DOT = .36961E-3
MEAN_MOTION_DDOT = 0

CCSDS_OMM_VERS = 2.0
CREATION_DATE  = 
ORIGINATOR     = 

OBJECT_NAME    = ISS OBJECT YC
OBJECT_ID      = 1998-067YC
CENTER_NAME    = EARTH
REF_FRAME      = TEME
TIME_SYSTEM    = UTC
MEAN_ELEMENT_THEORY = SGP/SGP4

EPOCH          = 2026-02-14T14:13:56.865792
MEAN_MOTION    = 15.50249574
ECCENTRICITY   = .0007752
INCLINATION    = 51.6309
RA_OF_ASC_NODE = 186.4277
ARG_OF_PERICENTER = 81.5569
MEAN_ANOMALY   = 278.6298

EPHEMERIS_TYPE = 0
CLASSIFICATION_TYPE = U
NORAD_CAT_ID   = 67686
ELEMENT_SET_NO = 999
REV_AT_EPOCH   = 120
BSTAR          = .73899E-3
MEAN_MOTION_DOT = .42361E-3
MEAN_MOTION_DDOT = 0

CCSDS_OMM_VERS = 2.0
CREATION_DATE  = 
ORIGINATOR     = 

OBJECT_NAME    = LEOPARD
OBJECT_ID      = 1998-067YD
CENTER_NAME    = EARTH
REF_FRAME      = TEME
TIME_SYSTEM    = UTC
MEAN_ELEMENT_THEORY = SGP/SGP4

EPOCH          = 2026-02-14T14:15:12.839904
MEAN_MOTION    = 15.50027685
ECCENTRICITY   = .0007837
INCLINATION    = 51.6308
RA_OF_ASC_NODE = 186.4329
ARG_OF_PERICENTER = 83.4976
MEAN_ANOMALY   = 276.6905

EPHEMERIS_TYPE = 0
CLASSIFICATION_TYPE = U
NORAD_CAT_ID   = 67687
ELEMENT_SET_NO = 999
REV_AT_EPOCH   = 112
BSTAR          = .6169E-3
MEAN_MOTION_DOT = .34975E-3
MEAN_MOTION_DDOT = 0

CCSDS_OMM_VERS = 2.0
CREATION_DATE  = 
ORIGINATOR     = 

OBJECT_NAME    = ISS OBJECT YE
OBJECT_ID      = 1998-067YE
CENTER_NAME    = EARTH
REF_FRAME      = TEME
TIME_SYSTEM    = UTC
MEAN_ELEMENT_THEORY = SGP/SGP4

EPOCH          = 2026-02-14T14:14:14.768736
MEAN_MOTION    = 15.50180052
ECCENTRICITY   = .0007741
INCLINATION    = 51.6310
RA_OF_ASC_NODE = 186.4292
ARG_OF_PERICENTER = 82.1062
MEAN_ANOMALY   = 278.0806

EPHEMERIS_TYPE = 0
CLASSIFICATION_TYPE = U
NORAD_CAT_ID   = 67688
ELEMENT_SET_NO = 999
REV_AT_EPOCH   = 112
BSTAR          = .68917E-3
MEAN_MOTION_DOT = .39361E-3
MEAN_MOTION_DDOT = 0

CCSDS_OMM_VERS = 2.0
CREATION_DATE  = 
ORIGINATOR     = 

OBJECT_NAME    = CREW DRAGON 12
OBJECT_ID      = 2026-031A
CENTER_NAME    = EARTH
REF_FRAME      = TEME
TIME_SYSTEM    = UTC
MEAN_ELEMENT_THEORY = SGP/SGP4

EPOCH          = 2026-02-13T14:39:05.346720
MEAN_MOTION    = 16.18051748
ECCENTRICITY   = .0025866
INCLINATION    = 51.6318
RA_OF_ASC_NODE = 191.8838
ARG_OF_PERICENTER = 226.1048
MEAN_ANOMALY   = 133.7834

EPHEMERIS_TYPE = 0
CLASSIFICATION_TYPE = U
NORAD_CAT_ID   = 67796
ELEMENT_SET_NO = 999
REV_AT_EPOCH   = 3
BSTAR          = .25516E-3
MEAN_MOTION_DOT = .465694E-2
MEAN_MOTION_DDOT = .11779E-4

