SILVERSAT               
1 66909U 98067XV  26045.63914030  .00107018  00000+0  10758-2 0  9992
2 66909  51.6270 182.2339 0002929 303.3470  56.7245 15.64616576 11573
ISS OBJECT XW           
1 66910U 98067XW  26045.40482725  .00109816  00000+0  11845-2 0  9996
2 66910  51.6252 183.6647 0002235 332.2237  27.8637 15.62815467 11532
ISS OBJECT XX           
1 66911U 98067XX  26045.60417950  .00130484  00000+0  12316-2 0  9996
2 66911  51.6239 181.9920 0004032 322.3771  37.6942 15.66097988 11568
ISS OBJECT XY           
1 66912U 98067XY  26045.60668361  .00062914  00000+0  77333-3 0  9994
2 66912  51.6276 183.5201 0000507 330.7488  29.3476 15.59665475 11543
ISS OBJECT XZ           
1 67683U 98067XZ  26045.59430717  .00033561  00000+0  59355-3 0  9990
2 67683  51.6304 186.4348 0010621 111.5111 248.7011 15.49944113  1203
GXIBA-1                 
1 67684U 98067YA  26045.59086864  .00054991  00000+0  93626-3 0  9990
2 67684  51.6306 186.4134 0012330 105.3844 254.8508 15.50770817  1201
CORAL                   
1 67685U 98067YB  26045.59361385  .00036961  00000+0  64875-3 0  9996
2 67685  51.6303 186.4305 0012537 107.0461 253.1903 15.50087237  1200
ISS OBJECT YC           
1 67686U 98067YC  26045.59301928  .00042361  00000+0  73899-3 0  9991
2 67686  51.6309 186.4277 0007752  81.5569 278.6298 15.50249574  1206
LEOPARD                 
1 67687U 98067YD  26045.59389861  .00034975  00000+0  61690-3 0  9992
2 67687  51.6308 186.4329 0007837  83.4976 276.6905 15.50027685  1122
ISS OBJECT YE           
1 67688U 98067YE  26045.59322649  .00039361  00000+0  68917-3 0  9997
2 67688  51.6310 186.4292 0007741  82.1062 278.0806 15.50180052  1125
CREW DRAGON 12          
1 67796U 26031A   26044.61047855  .00465694  11779-4  25516-3 0  9994
2 67796  51.6318 191.8838 0025866 226.1048 133.7834 16.18051748    32
